     2.11           N: GPS NAV DATA                         RINEX VERSION / TYPE
teqc  2019Feb25                         20221121 12:24:17UTCPGM / RUN BY / DATE
OSX ker:10.11.6|Core i5|gcc 4.3 -m64|OSX ker:10.10+|=+      COMMENT
    5.5879D-09  1.4901D-08 -5.9605D-08 -1.1921D-07          ION ALPHA
    8.3968D+04  9.8304D+04 -6.5536D+04 -5.2429D+05          ION BETA
    9.313225746155D-10 1.776356839400D-15   503808     1536 DELTA-UTC: A0,A1,T,W
                                                            END OF HEADER
16 09  6 16 23 59 44.0 4.132231697440D-05-3.410605131648D-12 0.000000000000D+00
    2.000000000000D+00-1.756250000000D+01 4.764127016442D-09 3.120779829258D+00
   -8.251518011093D-07 5.361253628507D-03 6.180256605148D-06 5.153560747147D+03
    2.591840000000D+05-1.136213541031D-07-2.844286125214D+00 5.774199962616D-08
    9.688415600712D-01 2.658750000000D+02-3.397580630528D-01-8.039977754488D-09
    1.592923494515D-10 1.000000000000D+00 1.536000000000D+03 0.000000000000D+00
    2.000000000000D+00 0.000000000000D+00-9.778887033463D-09 2.000000000000D+00
    2.520180000000D+05 4.000000000000D+00
19 09  6 16 23 59 44.0 2.225302159786D-05-1.250555214938D-12 0.000000000000D+00
    6.000000000000D+00-2.550000000000D+01 4.755198073087D-09 1.392310136289D+00
   -1.093372702599D-06 5.668829078786D-03 8.858740329742D-06 5.153616397858D+03
    2.591840000000D+05 5.215406417847D-08-1.745984557208D+00 4.097819328308D-08
    9.570864164338D-01 2.008125000000D+02-3.480876874551D-01-8.065693111350D-09
   -4.307322274405D-10 1.000000000000D+00 1.536000000000D+03 0.000000000000D+00
    2.000000000000D+00 0.000000000000D+00-1.443549990654D-08 6.000000000000D+00
    2.543460000000D+05 4.000000000000D+00
